MICROCARB               
1 64899U 25156A   26190.70804273  .00000340  00000+0  60786-4 0  9991
2 64899  98.0075 267.4872 0017187 188.1611 171.9320 14.72881364 51286
CO3D 3                  
1 64900U 25156B   26192.21294269  .00002704  00000+0  12791-3 0  9998
2 64900  97.4336 270.5604 0001822 100.2422 259.9018 15.20217233 53188
CO3D 4                  
1 64901U 25156C   26191.22576283  .00000847  00000+0  42254-4 0  9992
2 64901  97.4337 269.5877 0001227 162.5388 197.5889 15.20205175 53030
CO3D 2                  
1 64902U 25156D   26192.17975946  .00002599  00000+0  12314-3 0  9996
2 64902  97.4336 270.4265 0001311  87.9925 272.1460 15.20201227 53177
CO3D 1                  
1 64903U 25156E   26192.17991090  .00002643  00000+0  12515-3 0  9998
2 64903  97.4336 270.4267 0001309 100.3083 259.8300 15.20204785 53179
SENTINEL-6B             
1 66514U 25264A   26191.11823223 -.00000069  00000+0 -35219-4 0  9992
2 66514  66.0414  87.5519 0007877 268.8168  91.1945 12.80930089 30101
CAS500-3                
1 66655U 25274F   26191.27511966  .00000789  00000+0  90984-4 0  9991
2 66655  97.7440 118.8011 0006573  51.3120 308.8684 14.88376906 33582
CSG-3                   
1 67304U 26001A   26191.96275086  .00000169  00000+0  27801-4 0  9998
2 67304  97.8893  15.2207 0001496  92.7707 267.3677 14.82150168 27985
PRSC-E03                
1 68835U 26092A   26191.78129919  .00001604  00000+0  11293-3 0  9993
2 68835  38.0023 310.5396 0004502 223.4596 136.5811 15.06795926 11510
CAS500-2                
1 69013U 26100AK  26192.16913536  .00003556  00000+0  16396-3 0  9998
2 69013  97.3877  89.5712 0008028 308.8514  51.2005 15.20873067 10453
